YAOGAN-7                
1 36110U 09069A   26115.68827116  .00000413  00000+0  64343-4 0  9990
2 36110  98.0136   1.8631 0023934 205.8382 154.1635 14.77956096881879
TANDEM-X                
1 36605U 10030A   26115.56296837  .00000379  00000+0  21216-4 0  9999
2 36605  97.4460 124.0199 0001886  96.4899 263.6550 15.19153613878652
CARTOSAT-2B             
1 36795U 10035A   26115.82716792  .00000326  00000+0  51644-4 0  9990
2 36795  98.0000 166.6987 0011379   7.6052 352.5329 14.78661118852112
YAOGAN-10               
1 36834U 10038A   26115.87348750  .00000596  00000+0  75916-4 0  9994
2 36834  97.9027 139.6917 0001371  85.5713 351.4169 14.85180249849447
COSMO-SKYMED 4          
1 37216U 10060A   26115.85306791  .00000248  00000+0  37687-4 0  9998
2 37216  97.8892 300.2103 0001375  77.5998 282.5369 14.82159233836813
RESOURCESAT-2           
1 37387U 11015A   26115.79469274  .00000081  00000+0  57303-4 0  9999
2 37387  98.7668 183.5912 0012133  53.1729 307.0559 14.21599073778732
HAIYANG-2A              
1 37781U 11043A   26115.86821832 -.00000302  00000+0 -26606-3 0  9997
2 37781  99.3415 119.6418 0006624 186.1440 173.9629 13.75947256739466
RASAT                   
1 37791U 11044D   26115.84950780  .00000327  00000+0  65338-4 0  9993
2 37791  98.0542 208.0525 0020702   2.3656 135.8914 14.68114363785505
SRMSAT                  
1 37841U 11058D   26115.83996421  .00000416  00000+0  82284-4 0  9993
2 37841  19.9735  16.3150 0011659 348.3894  76.5667 14.11562942750415
PLEIADES 1A             
1 38012U 11076F   26115.86332588 -.00000004  00000+0  88984-5 0  9993
2 38012  98.1981 191.6647 0001045  78.9588  46.7668 14.58535552764367
ZIYUAN 1-02C (ZY 1-02C) 
1 38038U 11079A   26115.84103625  .00000133  00000+0  57829-4 0  9995
2 38038  98.4094 184.2379 0007672 102.3256  31.9703 14.38168738751682
ARIRANG-3 (KOMPSAT-3)   
1 38338U 12025B   26115.81929198  .00000398  00000+0  88377-4 0  9993
2 38338  98.1137  74.1976 0004036 283.7314  76.3438 14.62158003743691
EXACTVIEW-1 (ADS-1B)    
1 38709U 12039C   26115.78941110  .00000101  00000+0  62867-4 0  9992
2 38709  98.9702 232.0146 0010179 327.1705  32.8840 14.24968323715241
SPOT 6                  
1 38755U 12047A   26115.85441894  .00000112  00000+0  33963-4 0  9991
2 38755  98.2141 183.7682 0001215  83.5101 276.6236 14.58520971725421
PLEIADES 1B             
1 39019U 12068A   26115.80514369  .00000224  00000+0  58108-4 0  9993
2 39019  98.1951 191.5741 0001037  84.2633 275.8684 14.58562464713211
GOKTURK 2               
1 39030U 12073A   26115.79600125  .00000747  00000+0  11668-3 0  9995
2 39030  97.6862 315.8454 0001900 103.8467 256.2954 14.75490844716782
LANDSAT 8               
1 39084U 13008A   26115.83614316  .00000332  00000+0  83723-4 0  9997
2 39084  98.1852 186.7688 0001156  95.2744 264.8587 14.57105324690273
