[{"OBJECT_NAME":"YAOGAN-7","OBJECT_ID":"2009-069A","EPOCH":"2026-04-25T16:31:06.628224","MEAN_MOTION":14.77956096,"ECCENTRICITY":0.0023934,"INCLINATION":98.0136,"RA_OF_ASC_NODE":1.8631,"ARG_OF_PERICENTER":205.8382,"MEAN_ANOMALY":154.1635,"EPHEMERIS_TYPE":0,"CLASSIFICATION_TYPE":"U","NORAD_CAT_ID":36110,"ELEMENT_SET_NO":999,"REV_AT_EPOCH":88187,"BSTAR":6.4343e-5,"MEAN_MOTION_DOT":4.13e-6,"MEAN_MOTION_DDOT":0},{"OBJECT_NAME":"TANDEM-X","OBJECT_ID":"2010-030A","EPOCH":"2026-04-25T13:30:40.467168","MEAN_MOTION":15.19153613,"ECCENTRICITY":0.0001886,"INCLINATION":97.446,"RA_OF_ASC_NODE":124.0199,"ARG_OF_PERICENTER":96.4899,"MEAN_ANOMALY":263.655,"EPHEMERIS_TYPE":0,"CLASSIFICATION_TYPE":"U","NORAD_CAT_ID":36605,"ELEMENT_SET_NO":999,"REV_AT_EPOCH":87865,"BSTAR":2.1216e-5,"MEAN_MOTION_DOT":3.79e-6,"MEAN_MOTION_DDOT":0},{"OBJECT_NAME":"CARTOSAT-2B","OBJECT_ID":"2010-035A","EPOCH":"2026-04-25T19:51:07.308288","MEAN_MOTION":14.78661118,"ECCENTRICITY":0.0011379,"INCLINATION":98,"RA_OF_ASC_NODE":166.6987,"ARG_OF_PERICENTER":7.6052,"MEAN_ANOMALY":352.5329,"EPHEMERIS_TYPE":0,"CLASSIFICATION_TYPE":"U","NORAD_CAT_ID":36795,"ELEMENT_SET_NO":999,"REV_AT_EPOCH":85211,"BSTAR":5.1644e-5,"MEAN_MOTION_DOT":3.26e-6,"MEAN_MOTION_DDOT":0},{"OBJECT_NAME":"YAOGAN-10","OBJECT_ID":"2010-038A","EPOCH":"2026-04-25T20:57:49.320000","MEAN_MOTION":14.85180249,"ECCENTRICITY":0.0001371,"INCLINATION":97.9027,"RA_OF_ASC_NODE":139.6917,"ARG_OF_PERICENTER":85.5713,"MEAN_ANOMALY":351.4169,"EPHEMERIS_TYPE":0,"CLASSIFICATION_TYPE":"U","NORAD_CAT_ID":36834,"ELEMENT_SET_NO":999,"REV_AT_EPOCH":84944,"BSTAR":7.5916e-5,"MEAN_MOTION_DOT":5.96e-6,"MEAN_MOTION_DDOT":0},{"OBJECT_NAME":"COSMO-SKYMED 4","OBJECT_ID":"2010-060A","EPOCH":"2026-04-25T20:28:25.067424","MEAN_MOTION":14.82159233,"ECCENTRICITY":0.0001375,"INCLINATION":97.8892,"RA_OF_ASC_NODE":300.2103,"ARG_OF_PERICENTER":77.5998,"MEAN_ANOMALY":282.5369,"EPHEMERIS_TYPE":0,"CLASSIFICATION_TYPE":"U","NORAD_CAT_ID":37216,"ELEMENT_SET_NO":999,"REV_AT_EPOCH":83681,"BSTAR":3.7687e-5,"MEAN_MOTION_DOT":2.48e-6,"MEAN_MOTION_DDOT":0},{"OBJECT_NAME":"RESOURCESAT-2","OBJECT_ID":"2011-015A","EPOCH":"2026-04-25T19:04:21.452736","MEAN_MOTION":14.21599073,"ECCENTRICITY":0.0012133,"INCLINATION":98.7668,"RA_OF_ASC_NODE":183.5912,"ARG_OF_PERICENTER":53.1729,"MEAN_ANOMALY":307.0559,"EPHEMERIS_TYPE":0,"CLASSIFICATION_TYPE":"U","NORAD_CAT_ID":37387,"ELEMENT_SET_NO":999,"REV_AT_EPOCH":77873,"BSTAR":5.7303e-5,"MEAN_MOTION_DOT":8.1e-7,"MEAN_MOTION_DDOT":0},{"OBJECT_NAME":"HAIYANG-2A","OBJECT_ID":"2011-043A","EPOCH":"2026-04-25T20:50:14.062848","MEAN_MOTION":13.75947256,"ECCENTRICITY":0.0006624,"INCLINATION":99.3415,"RA_OF_ASC_NODE":119.6418,"ARG_OF_PERICENTER":186.144,"MEAN_ANOMALY":173.9629,"EPHEMERIS_TYPE":0,"CLASSIFICATION_TYPE":"U","NORAD_CAT_ID":37781,"ELEMENT_SET_NO":999,"REV_AT_EPOCH":73946,"BSTAR":-0.00026606,"MEAN_MOTION_DOT":-3.02e-6,"MEAN_MOTION_DDOT":0},{"OBJECT_NAME":"RASAT","OBJECT_ID":"2011-044D","EPOCH":"2026-04-25T20:23:17.473920","MEAN_MOTION":14.68114363,"ECCENTRICITY":0.0020702,"INCLINATION":98.0542,"RA_OF_ASC_NODE":208.0525,"ARG_OF_PERICENTER":2.3656,"MEAN_ANOMALY":135.8914,"EPHEMERIS_TYPE":0,"CLASSIFICATION_TYPE":"U","NORAD_CAT_ID":37791,"ELEMENT_SET_NO":999,"REV_AT_EPOCH":78550,"BSTAR":6.5338e-5,"MEAN_MOTION_DOT":3.27e-6,"MEAN_MOTION_DDOT":0},{"OBJECT_NAME":"SRMSAT","OBJECT_ID":"2011-058D","EPOCH":"2026-04-25T20:09:32.907744","MEAN_MOTION":14.11562942,"ECCENTRICITY":0.0011659,"INCLINATION":19.9735,"RA_OF_ASC_NODE":16.315,"ARG_OF_PERICENTER":348.3894,"MEAN_ANOMALY":76.5667,"EPHEMERIS_TYPE":0,"CLASSIFICATION_TYPE":"U","NORAD_CAT_ID":37841,"ELEMENT_SET_NO":999,"REV_AT_EPOCH":75041,"BSTAR":8.2284e-5,"MEAN_MOTION_DOT":4.16e-6,"MEAN_MOTION_DDOT":0},{"OBJECT_NAME":"PLEIADES 1A","OBJECT_ID":"2011-076F","EPOCH":"2026-04-25T20:43:11.356032","MEAN_MOTION":14.58535552,"ECCENTRICITY":0.0001045,"INCLINATION":98.1981,"RA_OF_ASC_NODE":191.6647,"ARG_OF_PERICENTER":78.9588,"MEAN_ANOMALY":46.7668,"EPHEMERIS_TYPE":0,"CLASSIFICATION_TYPE":"U","NORAD_CAT_ID":38012,"ELEMENT_SET_NO":999,"REV_AT_EPOCH":76436,"BSTAR":8.8984e-6,"MEAN_MOTION_DOT":-4.0e-8,"MEAN_MOTION_DDOT":0},{"OBJECT_NAME":"ZIYUAN 1-02C (ZY 1-02C)","OBJECT_ID":"2011-079A","EPOCH":"2026-04-25T20:11:05.532000","MEAN_MOTION":14.38168738,"ECCENTRICITY":0.0007672,"INCLINATION":98.4094,"RA_OF_ASC_NODE":184.2379,"ARG_OF_PERICENTER":102.3256,"MEAN_ANOMALY":31.9703,"EPHEMERIS_TYPE":0,"CLASSIFICATION_TYPE":"U","NORAD_CAT_ID":38038,"ELEMENT_SET_NO":999,"REV_AT_EPOCH":75168,"BSTAR":5.7829e-5,"MEAN_MOTION_DOT":1.33e-6,"MEAN_MOTION_DDOT":0},{"OBJECT_NAME":"ARIRANG-3 (KOMPSAT-3)","OBJECT_ID":"2012-025B","EPOCH":"2026-04-25T19:39:46.827072","MEAN_MOTION":14.62158003,"ECCENTRICITY":0.0004036,"INCLINATION":98.1137,"RA_OF_ASC_NODE":74.1976,"ARG_OF_PERICENTER":283.7314,"MEAN_ANOMALY":76.3438,"EPHEMERIS_TYPE":0,"CLASSIFICATION_TYPE":"U","NORAD_CAT_ID":38338,"ELEMENT_SET_NO":999,"REV_AT_EPOCH":74369,"BSTAR":8.8377e-5,"MEAN_MOTION_DOT":3.98e-6,"MEAN_MOTION_DDOT":0},{"OBJECT_NAME":"EXACTVIEW-1 (ADS-1B)","OBJECT_ID":"2012-039C","EPOCH":"2026-04-25T18:56:45.119040","MEAN_MOTION":14.24968323,"ECCENTRICITY":0.0010179,"INCLINATION":98.9702,"RA_OF_ASC_NODE":232.0146,"ARG_OF_PERICENTER":327.1705,"MEAN_ANOMALY":32.884,"EPHEMERIS_TYPE":0,"CLASSIFICATION_TYPE":"U","NORAD_CAT_ID":38709,"ELEMENT_SET_NO":999,"REV_AT_EPOCH":71524,"BSTAR":6.2867e-5,"MEAN_MOTION_DOT":1.01e-6,"MEAN_MOTION_DDOT":0},{"OBJECT_NAME":"SPOT 6","OBJECT_ID":"2012-047A","EPOCH":"2026-04-25T20:30:21.796416","MEAN_MOTION":14.58520971,"ECCENTRICITY":0.0001215,"INCLINATION":98.2141,"RA_OF_ASC_NODE":183.7682,"ARG_OF_PERICENTER":83.5101,"MEAN_ANOMALY":276.6236,"EPHEMERIS_TYPE":0,"CLASSIFICATION_TYPE":"U","NORAD_CAT_ID":38755,"ELEMENT_SET_NO":999,"REV_AT_EPOCH":72542,"BSTAR":3.3963e-5,"MEAN_MOTION_DOT":1.12e-6,"MEAN_MOTION_DDOT":0},{"OBJECT_NAME":"PLEIADES 1B","OBJECT_ID":"2012-068A","EPOCH":"2026-04-25T19:19:24.414816","MEAN_MOTION":14.58562464,"ECCENTRICITY":0.0001037,"INCLINATION":98.1951,"RA_OF_ASC_NODE":191.5741,"ARG_OF_PERICENTER":84.2633,"MEAN_ANOMALY":275.8684,"EPHEMERIS_TYPE":0,"CLASSIFICATION_TYPE":"U","NORAD_CAT_ID":39019,"ELEMENT_SET_NO":999,"REV_AT_EPOCH":71321,"BSTAR":5.8108e-5,"MEAN_MOTION_DOT":2.24e-6,"MEAN_MOTION_DDOT":0},{"OBJECT_NAME":"GOKTURK 2","OBJECT_ID":"2012-073A","EPOCH":"2026-04-25T19:06:14.508000","MEAN_MOTION":14.75490844,"ECCENTRICITY":0.00019,"INCLINATION":97.6862,"RA_OF_ASC_NODE":315.8454,"ARG_OF_PERICENTER":103.8467,"MEAN_ANOMALY":256.2954,"EPHEMERIS_TYPE":0,"CLASSIFICATION_TYPE":"U","NORAD_CAT_ID":39030,"ELEMENT_SET_NO":999,"REV_AT_EPOCH":71678,"BSTAR":0.00011668,"MEAN_MOTION_DOT":7.47e-6,"MEAN_MOTION_DDOT":0},{"OBJECT_NAME":"LANDSAT 8","OBJECT_ID":"2013-008A","EPOCH":"2026-04-25T20:04:02.769024","MEAN_MOTION":14.57105324,"ECCENTRICITY":0.0001156,"INCLINATION":98.1852,"RA_OF_ASC_NODE":186.7688,"ARG_OF_PERICENTER":95.2744,"MEAN_ANOMALY":264.8587,"EPHEMERIS_TYPE":0,"CLASSIFICATION_TYPE":"U","NORAD_CAT_ID":39084,"ELEMENT_SET_NO":999,"REV_AT_EPOCH":69027,"BSTAR":8.3723e-5,"MEAN_MOTION_DOT":3.32e-6,"MEAN_MOTION_DDOT":0}]
